{
  "links" : {
    "next" : "https://api.nasa.gov/neo/rest/v1/neo/browse?page=4&size=20&api_key=jqAGvNAwUIBu4fl9FSOjdm3V4F7hIglRzI6pdX9d",
    "prev" : "https://api.nasa.gov/neo/rest/v1/neo/browse?page=2&size=20&api_key=jqAGvNAwUIBu4fl9FSOjdm3V4F7hIglRzI6pdX9d",
    "self" : "https://api.nasa.gov/neo/rest/v1/neo/browse?page=3&size=20&api_key=jqAGvNAwUIBu4fl9FSOjdm3V4F7hIglRzI6pdX9d"
  },
  "page" : {
    "size" : 20,
    "total_elements" : 20750,
    "total_pages" : 1038,
    "number" : 3
  },
  "near_earth_objects" : [ {
    "links" : {
      "self" : "https://api.nasa.gov/neo/rest/v1/neo/3092221?api_key=jqAGvNAwUIBu4fl9FSOjdm3V4F7hIglRzI6pdX9d"
    },
    "neo_reference_id" : "3092221",
    "name" : "(1999 HC1)",
    "designation" : "1999 HC1",
    "nasa_jpl_url" : "http://ssd.jpl.nasa.gov/sbdb.cgi?sstr=3092221",
    "absolute_magnitude_h" : 24.5,
    "estimated_diameter" : {
      "kilometers" : {
        "estimated_diameter_min" : 0.0334622374,
        "estimated_diameter_max" : 0.0748238376
      },
      "meters" : {
        "estimated_diameter_min" : 33.4622374455,
        "estimated_diameter_max" : 74.8238376074
      },
      "miles" : {
        "estimated_diameter_min" : 0.0207924639,
        "estimated_diameter_max" : 0.0464933628
      },
      "feet" : {
        "estimated_diameter_min" : 109.7842471007,
        "estimated_diameter_max" : 245.4850393757
      }
    },
    "is_potentially_hazardous_asteroid" : false,
    "close_approach_data" : [ {
      "close_approach_date" : "1999-04-15",
      "epoch_date_close_approach" : 924159600000,
      "relative_velocity" : {
        "kilometers_per_second" : "7.1564130162",
        "kilometers_per_hour" : "25763.0868583534",
        "miles_per_hour" : "16008.1802759585"
      },
      "miss_distance" : {
        "astronomical" : "0.0190006687",
        "lunar" : "7.3912596703",
        "kilometers" : "2842459.5",
        "miles" : "1766222.5"
      },
      "orbiting_body" : "Earth"
    } ],
    "orbital_data" : {
      "orbit_id" : "11",
      "orbit_determination_date" : "2017-04-06 09:17:29",
      "first_observation_date" : "1999-04-16",
      "last_observation_date" : "1999-04-21",
      "data_arc_in_days" : 5,
      "observations_used" : 11,
      "orbit_uncertainty" : "9",
      "minimum_orbit_intersection" : ".00855592",
      "jupiter_tisserand_invariant" : "3.630",
      "epoch_osculation" : "2451287.5",
      "eccentricity" : ".5074888675333802",
      "semi_major_axis" : "2.03956420548366",
      "inclination" : "1.286721018997596",
      "ascending_node_longitude" : "28.55792605217838",
      "orbital_period" : "1063.909039918612",
      "perihelion_distance" : "1.004508076581139",
      "perihelion_argument" : "159.1934315533282",
      "aphelion_distance" : "3.07462033438618",
      "perihelion_time" : "2451269.935848060506",
      "mean_anomaly" : "5.943266257707098",
      "mean_motion" : ".3383747919159891",
      "equinox" : "J2000",
      "orbit_class" : {
        "orbit_class_type" : "APO",
        "orbit_class_range" : "a (semi-major axis) > 1.0 AU; q (perihelion) < 1.017 AU",
        "orbit_class_description" : "Near-Earth asteroid orbits which cross the Earth’s orbit similar to that of 1862 Apollo"
      }
    },
    "is_sentry_object" : false
  }, {
    "links" : {
      "self" : "https://api.nasa.gov/neo/rest/v1/neo/3020971?api_key=jqAGvNAwUIBu4fl9FSOjdm3V4F7hIglRzI6pdX9d"
    },
    "neo_reference_id" : "3020971",
    "name" : "(1999 JO6)",
    "nasa_jpl_url" : "http://ssd.jpl.nasa.gov/sbdb.cgi?sstr=3020971",
    "absolute_magnitude_h" : 16.6,
    "estimated_diameter" : {
      "kilometers" : {
        "estimated_diameter_min" : 1.2721987854,
        "estimated_diameter_max" : 2.844722965
      },
      "meters" : {
        "estimated_diameter_min" : 1272.1987853936,
        "estimated_diameter_max" : 2844.7229650327
      },
      "miles" : {
        "estimated_diameter_min" : 0.7905074315,
        "estimated_diameter_max" : 1.7676283535
      },
      "feet" : {
        "estimated_diameter_min" : 4173.8806630706,
        "estimated_diameter_max" : 9333.0808925979
      }
    },
    "is_potentially_hazardous_asteroid" : false,
    "close_approach_data" : [ {
      "close_approach_date" : "2107-06-25",
      "epoch_date_close_approach" : 4338428400000,
      "relative_velocity" : {
        "kilometers_per_second" : "14.7301271403",
        "kilometers_per_hour" : "53028.4577049234",
        "miles_per_hour" : "32949.8214000398"
      },
      "miss_distance" : {
        "astronomical" : "0.4959567679",
        "lunar" : "192.9271850586",
        "kilometers" : "74194080",
        "miles" : "46102064"
      },
      "orbiting_body" : "Earth"
    }, {
      "close_approach_date" : "2190-06-24",
      "epoch_date_close_approach" : 6957644400000,
      "relative_velocity" : {
        "kilometers_per_second" : "14.3005437281",
        "kilometers_per_hour" : "51481.9574212194",
        "miles_per_hour" : "31988.8862654238"
      },
      "miss_distance" : {
        "astronomical" : "0.4915018368",
        "lunar" : "191.1942138672",
        "kilometers" : "73527632",
        "miles" : "45687952"
      },
      "orbiting_body" : "Earth"
    } ],
    "orbital_data" : {
      "orbit_id" : "19",
      "orbit_determination_date" : "2016-12-25 06:18:19",
      "first_observation_date" : null,
      "last_observation_date" : null,
      "data_arc_in_days" : null,
      "observations_used" : null,
      "orbit_uncertainty" : "1",
      "minimum_orbit_intersection" : ".486905",
      "jupiter_tisserand_invariant" : "3.098",
      "epoch_osculation" : "2457800.5",
      "eccentricity" : ".4965744861103633",
      "semi_major_axis" : "2.579014508921161",
      "inclination" : "27.8649730984489",
      "ascending_node_longitude" : "64.36737489007649",
      "orbital_period" : "1512.791602034132",
      "perihelion_distance" : "1.298341704482464",
      "perihelion_argument" : "250.9151546960468",
      "aphelion_distance" : "3.859687313359857",
      "perihelion_time" : "2457501.957460107973",
      "mean_anomaly" : "71.04436210289394",
      "mean_motion" : ".2379706494377258",
      "equinox" : "J2000",
      "orbit_class" : null
    },
    "is_sentry_object" : false
  }, {
    "links" : {
      "self" : "https://api.nasa.gov/neo/rest/v1/neo/3092224?api_key=jqAGvNAwUIBu4fl9FSOjdm3V4F7hIglRzI6pdX9d"
    },
    "neo_reference_id" : "3092224",
    "name" : "(1999 KL1)",
    "designation" : "1999 KL1",
    "nasa_jpl_url" : "http://ssd.jpl.nasa.gov/sbdb.cgi?sstr=3092224",
    "absolute_magnitude_h" : 21.5,
    "estimated_diameter" : {
      "kilometers" : {
        "estimated_diameter_min" : 0.1332155667,
        "estimated_diameter_max" : 0.2978790628
      },
      "meters" : {
        "estimated_diameter_min" : 133.2155666981,
        "estimated_diameter_max" : 297.8790627982
      },
      "miles" : {
        "estimated_diameter_min" : 0.0827762899,
        "estimated_diameter_max" : 0.1850934111
      },
      "feet" : {
        "estimated_diameter_min" : 437.0589598459,
        "estimated_diameter_max" : 977.2935443908
      }
    },
    "is_potentially_hazardous_asteroid" : false,
    "close_approach_data" : [ {
      "close_approach_date" : "1999-05-07",
      "epoch_date_close_approach" : 926060400000,
      "relative_velocity" : {
        "kilometers_per_second" : "10.14441922",
        "kilometers_per_hour" : "36519.9091919647",
        "miles_per_hour" : "22692.0513531961"
      },
      "miss_distance" : {
        "astronomical" : "0.0953581464",
        "lunar" : "37.0943183899",
        "kilometers" : "14265376",
        "miles" : "8864094"
      },
      "orbiting_body" : "Earth"
    } ],
    "orbital_data" : {
      "orbit_id" : "11",
      "orbit_determination_date" : "2017-04-06 09:17:27",
      "first_observation_date" : "1999-05-17",
      "last_observation_date" : "1999-06-02",
      "data_arc_in_days" : 16,
      "observations_used" : 28,
      "orbit_uncertainty" : "8",
      "minimum_orbit_intersection" : ".0839382",
      "jupiter_tisserand_invariant" : "4.048",
      "epoch_osculation" : "2451318.5",
      "eccentricity" : ".4288827855843989",
      "semi_major_axis" : "1.720762321162722",
      "inclination" : "9.667572728308947",
      "ascending_node_longitude" : "64.79936961388104",
      "orbital_period" : "824.4793044553187",
      "perihelion_distance" : ".9827569835337778",
      "perihelion_argument" : "116.8524708526892",
      "aphelion_distance" : "2.458767658791666",
      "perihelion_time" : "2451269.217954557765",
      "mean_anomaly" : "21.51847385778265",
      "mean_motion" : ".4366392195105845",
      "equinox" : "J2000",
      "orbit_class" : {
        "orbit_class_type" : "APO",
        "orbit_class_range" : "a (semi-major axis) > 1.0 AU; q (perihelion) < 1.017 AU",
        "orbit_class_description" : "Near-Earth asteroid orbits which cross the Earth’s orbit similar to that of 1862 Apollo"
      }
    },
    "is_sentry_object" : false
  } ]
}